[
    {
        "Altitude(m)": 710304.4781385213,
        "Argument of Periapsis(deg)": 0.005695060593313534,
        "Eccentricity": 0.0,
        "Inclination(deg)": 45.0,
        "Latitude(deg)": -26.286306408194392,
        "Longitude(deg)": 104.0534115082492,
        "Mean Anomaly(deg)": -141.50609167625962,
        "RAAN(deg)": 354.9946240292709,
        "Satellite Name": "Constellation 1 1575",
        "Satellite Number": 1575,
        "Semi-Major Axis(m)": 7083131.272910544,
        "Time(s)": 95
    },
    {
        "Altitude(m)": 710318.3182045924,
        "Argument of Periapsis(deg)": 0.00575500859955894,
        "Eccentricity": 0.0,
        "Inclination(deg)": 45.0,
        "Latitude(deg)": -26.323810003869088,
        "Longitude(deg)": 104.1024837048033,
        "Mean Anomaly(deg)": -141.44539053600968,
        "RAAN(deg)": 354.9945674401053,
        "Satellite Name": "Constellation 1 1575",
        "Satellite Number": 1575,
        "Semi-Major Axis(m)": 7083131.272910544,
        "Time(s)": 96
    },
    {
        "Altitude(m)": 710332.1590268132,
        "Argument of Periapsis(deg)": 0.005814956605804345,
        "Eccentricity": 0.0,
        "Inclination(deg)": 45.0,
        "Latitude(deg)": -26.36129358441721,
        "Longitude(deg)": 104.15159018577408,
        "Mean Anomaly(deg)": -141.38468939575972,
        "RAAN(deg)": 354.9945108509398,
        "Satellite Name": "Constellation 1 1575",
        "Satellite Number": 1575,
        "Semi-Major Axis(m)": 7083131.272910544,
        "Time(s)": 97
    },
    {
        "Altitude(m)": 710346.0005576751,
        "Argument of Periapsis(deg)": 0.00587490461204975,
        "Eccentricity": 0.0,
        "Inclination(deg)": 45.0,
        "Latitude(deg)": -26.398757104944124,
        "Longitude(deg)": 104.20073084319822,
        "Mean Anomaly(deg)": -141.3239882555099,
        "RAAN(deg)": 354.9944542617742,
        "Satellite Name": "Constellation 1 1575",
        "Satellite Number": 1575,
        "Semi-Major Axis(m)": 7083131.272910544,
        "Time(s)": 98
    },
    {
        "Altitude(m)": 710359.8427496665,
        "Argument of Periapsis(deg)": 0.005934852618295156,
        "Eccentricity": 0.0,
        "Inclination(deg)": 45.0,
        "Latitude(deg)": -26.436200520490136,
        "Longitude(deg)": 104.24990573720264,
        "Mean Anomaly(deg)": -141.26328711526,
        "RAAN(deg)": 354.9943976726086,
        "Satellite Name": "Constellation 1 1575",
        "Satellite Number": 1575,
        "Semi-Major Axis(m)": 7083131.272910544,
        "Time(s)": 99
    },
    {
        "Altitude(m)": 710373.6855552619,
        "Argument of Periapsis(deg)": 0.005994800624540561,
        "Eccentricity": 0.0,
        "Inclination(deg)": 45.0,
        "Latitude(deg)": -26.473623786030046,
        "Longitude(deg)": 104.29911492790718,
        "Mean Anomaly(deg)": -141.20258597501,
        "RAAN(deg)": 354.99434108344303,
        "Satellite Name": "Constellation 1 1575",
        "Satellite Number": 1575,
        "Semi-Major Axis(m)": 7083131.272910544,
        "Time(s)": 100
    },
    {
        "Altitude(m)": 710387.5289269178,
        "Argument of Periapsis(deg)": 0.006054748630785968,
        "Eccentricity": 0.0,
        "Inclination(deg)": 45.0,
        "Latitude(deg)": -26.511026856473283,
        "Longitude(deg)": 104.34835847542405,
        "Mean Anomaly(deg)": -141.1418848347602,
        "RAAN(deg)": 354.99428449427745,
        "Satellite Name": "Constellation 1 1575",
        "Satellite Number": 1575,
        "Semi-Major Axis(m)": 7083131.272910544,
        "Time(s)": 101
    },
    {
        "Altitude(m)": 710401.372817073,
        "Argument of Periapsis(deg)": 0.006114696637031373,
        "Eccentricity": 0.0,
        "Inclination(deg)": 45.0,
        "Latitude(deg)": -26.548409686663696,
        "Longitude(deg)": 104.39763643985741,
        "Mean Anomaly(deg)": -141.08118369451032,
        "RAAN(deg)": 354.9942279051119,
        "Satellite Name": "Constellation 1 1575",
        "Satellite Number": 1575,
        "Semi-Major Axis(m)": 7083131.272910544,
        "Time(s)": 102
    },
    {
        "Altitude(m)": 710415.2171781599,
        "Argument of Periapsis(deg)": 0.006174644643276778,
        "Eccentricity": 0.0,
        "Inclination(deg)": 45.0,
        "Latitude(deg)": -26.585772231379586,
        "Longitude(deg)": 104.44694888130343,
        "Mean Anomaly(deg)": -141.02048255426038,
        "RAAN(deg)": 354.99417131594635,
        "Satellite Name": "Constellation 1 1575",
        "Satellite Number": 1575,
        "Semi-Major Axis(m)": 7083131.272910544,
        "Time(s)": 103
    },
    {
        "Altitude(m)": 710429.0619625907,
        "Argument of Periapsis(deg)": 0.006234592649522184,
        "Eccentricity": 0.0,
        "Inclination(deg)": 45.0,
        "Latitude(deg)": -26.623114445333357,
        "Longitude(deg)": 104.49629569175218,
        "Mean Anomaly(deg)": -140.95978141401048,
        "RAAN(deg)": 354.9941147267807,
        "Satellite Name": "Constellation 1 1575",
        "Satellite Number": 1575,
        "Semi-Major Axis(m)": 7083131.272910544,
        "Time(s)": 104
    },
    {
        "Altitude(m)": 710442.9071227665,
        "Argument of Periapsis(deg)": 0.00629454065576759,
        "Eccentricity": 0.0,
        "Inclination(deg)": 45.0,
        "Latitude(deg)": -26.660436283171883,
        "Longitude(deg)": 104.54567726747588,
        "Mean Anomaly(deg)": -140.89908027376063,
        "RAAN(deg)": 354.9940581376152,
        "Satellite Name": "Constellation 1 1575",
        "Satellite Number": 1575,
        "Semi-Major Axis(m)": 7083131.272910544,
        "Time(s)": 105
    },
    {
        "Altitude(m)": 710456.7526110796,
        "Argument of Periapsis(deg)": 0.006354488662012995,
        "Eccentricity": 0.0,
        "Inclination(deg)": 45.0,
        "Latitude(deg)": -26.697737699475915,
        "Longitude(deg)": 104.5950935004463,
        "Mean Anomaly(deg)": -140.83837913351067,
        "RAAN(deg)": 354.9940015484496,
        "Satellite Name": "Constellation 1 1575",
        "Satellite Number": 1575,
        "Semi-Major Axis(m)": 7083131.272910544,
        "Time(s)": 106
    },
    {
        "Altitude(m)": 710470.5983798984,
        "Argument of Periapsis(deg)": 0.006414436668258401,
        "Eccentricity": 0.0,
        "Inclination(deg)": 45.0,
        "Latitude(deg)": -26.73501864876042,
        "Longitude(deg)": 104.64454445072232,
        "Mean Anomaly(deg)": -140.77767799326074,
        "RAAN(deg)": 354.9939449592841,
        "Satellite Name": "Constellation 1 1575",
        "Satellite Number": 1575,
        "Semi-Major Axis(m)": 7083131.272910544,
        "Time(s)": 107
    },
    {
        "Altitude(m)": 710484.4443815934,
        "Argument of Periapsis(deg)": 0.0064743846745038075,
        "Eccentricity": 0.0,
        "Inclination(deg)": 45.0,
        "Latitude(deg)": -26.772279085474057,
        "Longitude(deg)": 104.69403017835245,
        "Mean Anomaly(deg)": -140.7169768530109,
        "RAAN(deg)": 354.9938883701185,
        "Satellite Name": "Constellation 1 1575",
        "Satellite Number": 1575,
        "Semi-Major Axis(m)": 7083131.272910544,
        "Time(s)": 108
    },
    {
        "Altitude(m)": 710498.2905685097,
        "Argument of Periapsis(deg)": 0.0065343326807492125,
        "Eccentricity": 0.0,
        "Inclination(deg)": 45.0,
        "Latitude(deg)": -26.809518963999608,
        "Longitude(deg)": 104.74355074337481,
        "Mean Anomaly(deg)": -140.65627571276102,
        "RAAN(deg)": 354.993831780953,
        "Satellite Name": "Constellation 1 1575",
        "Satellite Number": 1575,
        "Semi-Major Axis(m)": 7083131.272910544,
        "Time(s)": 109
    },
    {
        "Altitude(m)": 710512.1368929838,
        "Argument of Periapsis(deg)": 0.0065942806869946176,
        "Eccentricity": 0.0,
        "Inclination(deg)": 45.0,
        "Latitude(deg)": -26.846738238653476,
        "Longitude(deg)": 104.79310620581613,
        "Mean Anomaly(deg)": -140.59557457251114,
        "RAAN(deg)": 354.99377519178734,
        "Satellite Name": "Constellation 1 1575",
        "Satellite Number": 1575,
        "Semi-Major Axis(m)": 7083131.272910544,
        "Time(s)": 110
    },
    {
        "Altitude(m)": 710525.9833073389,
        "Argument of Periapsis(deg)": 0.006654228693240024,
        "Eccentricity": 0.0,
        "Inclination(deg)": 45.0,
        "Latitude(deg)": -26.88393686368581,
        "Longitude(deg)": 104.8426964575953,
        "Mean Anomaly(deg)": -140.53487343226115,
        "RAAN(deg)": 354.99371860262175,
        "Satellite Name": "Constellation 1 1575",
        "Satellite Number": 1575,
        "Semi-Major Axis(m)": 7083131.272910544,
        "Time(s)": 111
    },
    {
        "Altitude(m)": 710539.8297638923,
        "Argument of Periapsis(deg)": 0.006714176699485429,
        "Eccentricity": 0.0,
        "Inclination(deg)": 45.0,
        "Latitude(deg)": -26.921114793280324,
        "Longitude(deg)": 104.89232189490934,
        "Mean Anomaly(deg)": -140.47417229201133,
        "RAAN(deg)": 354.99366201345623,
        "Satellite Name": "Constellation 1 1575",
        "Satellite Number": 1575,
        "Semi-Major Axis(m)": 7083131.272910544,
        "Time(s)": 112
    },
    {
        "Altitude(m)": 710553.6762149411,
        "Argument of Periapsis(deg)": 0.006774124705730835,
        "Eccentricity": 0.0,
        "Inclination(deg)": 45.0,
        "Latitude(deg)": -26.958271981554294,
        "Longitude(deg)": 104.94198240965292,
        "Mean Anomaly(deg)": -140.41347115176137,
        "RAAN(deg)": 354.99360542429065,
        "Satellite Name": "Constellation 1 1575",
        "Satellite Number": 1575,
        "Semi-Major Axis(m)": 7083131.272910544,
        "Time(s)": 113
    }
]